$$SOE
2461288.500000000, A.D. 2026-Sep-05 00:00:00.0000, 2.993429970005107E+07, -3.501715689742528E+08, -1.143285955072128E+08,
2461295.500000000, A.D. 2026-Sep-12 00:00:00.0000, 3.915647475485135E+07, -3.449159089983062E+08, -1.110608021203622E+08,
2461302.500000000, A.D. 2026-Sep-19 00:00:00.0000, 4.833933041999448E+07, -3.393143924618440E+08, -1.076816470784157E+08,
2461309.500000000, A.D. 2026-Sep-26 00:00:00.0000, 5.747151176617918E+07, -3.333576292649843E+08, -1.041897569531044E+08,
2461316.500000000, A.D. 2026-Oct-03 00:00:00.0000, 6.654070476762493E+07, -3.270359435865775E+08, -1.005838149989869E+08,
2461323.500000000, A.D. 2026-Oct-10 00:00:00.0000, 7.553353837098302E+07, -3.203393850835952E+08, -9.686258071770495E+07,
2461330.500000000, A.D. 2026-Oct-17 00:00:00.0000, 8.443547605377424E+07, -3.132577465804144E+08, -9.302491329007892E+07,
2461337.500000000, A.D. 2026-Oct-24 00:00:00.0000, 9.323069590009372E+07, -3.057805899134027E+08, -8.906979959797008E+07,
2461344.500000000, A.D. 2026-Oct-31 00:00:00.0000, 1.019019582843347E+08, -2.978972820178411E+08, -8.499638769980510E+07,
2461351.500000000, A.D. 2026-Nov-07 00:00:00.0000, 1.104304605214866E+08, -2.895970436642416E+08, -8.080402678717580E+07,
2461358.500000000, A.D. 2026-Nov-14 00:00:00.0000, 1.187956777909812E+08, -2.808690129929416E+08, -7.649231474489357E+07,
2461365.500000000, A.D. 2026-Nov-21 00:00:00.0000, 1.269751878045630E+08, -2.717023268642947E+08, -7.206115446502376E+07,
2461372.500000000, A.D. 2026-Nov-28 00:00:00.0000, 1.349444778085973E+08, -2.620862275184892E+08, -6.751082065990345E+07,
2461379.500000000, A.D. 2026-Dec-05 00:00:00.0000, 1.426767376192889E+08, -2.520102006186449E+08, -6.284203939004727E+07,
2461386.500000000, A.D. 2026-Dec-12 00:00:00.0000, 1.501426396751768E+08, -2.414641480718541E+08, -5.805608215033288E+07,
2461393.500000000, A.D. 2026-Dec-19 00:00:00.0000, 1.573101061187522E+08, -2.304386033640747E+08, -5.315487667023927E+07,
2461400.500000000, A.D. 2026-Dec-26 00:00:00.0000, 1.641440662038298E+08, -2.189249993853483E+08, -4.814113703274338E+07,
2461407.500000000, A.D. 2027-Jan-02 00:00:00.0000, 1.706062098923098E+08, -2.069159994952883E+08, -4.301851584832750E+07,
2461414.500000000, A.D. 2027-Jan-09 00:00:00.0000, 1.766547462812118E+08, -1.944059038070014E+08, -3.779178120710465E+07,
2461421.500000000, A.D. 2027-Jan-16 00:00:00.0000, 1.822441793479775E+08, -1.813911439361340E+08, -3.246702092150533E+07,
2461428.500000000, A.D. 2027-Jan-23 00:00:00.0000, 1.873251186530515E+08, -1.678708803022768E+08, -2.705187601978464E+07,
2461435.500000000, A.D. 2027-Jan-30 00:00:00.0000, 1.918441493460295E+08, -1.538477159710627E+08, -2.155580437726855E+07,
2461442.500000000, A.D. 2027-Feb-06 00:00:00.0000, 1.957437941926593E+08, -1.393285390193047E+08, -1.599037351266131E+07,
2461449.500000000, A.D. 2027-Feb-13 00:00:00.0000, 1.989626090880180E+08, -1.243255005287032E+08, -1.036957851407516E+07,
2461456.500000000, A.D. 2027-Feb-20 00:00:00.0000, 2.014354623434489E+08, -1.088571297583854E+08, -4.710176746075347E+06,
2461463.500000000, A.D. 2027-Feb-27 00:00:00.0000, 2.030940626820289E+08, -9.294957792677949E+07, 9.679744800216481E+05,
2461470.500000000, A.D. 2027-Mar-06 00:00:00.0000, 2.038678117532591E+08, -7.663795791902566E+07, 6.641599296777815E+06,
2461477.500000000, A.D. 2027-Mar-13 00:00:00.0000, 2.036850569779553E+08, -5.996772046834497E+07, 1.228373599470223E+07,
2461484.500000000, A.D. 2027-Mar-20 00:00:00.0000, 2.024748165996763E+08, -4.299597558534045E+07, 1.786356412962409E+07,
2461491.500000000, A.D. 2027-Mar-27 00:00:00.0000, 2.001690310819696E+08, -2.579262659715528E+07, 2.334637992655472E+07,
2461498.500000000, A.D. 2027-Apr-03 00:00:00.0000, 1.967053551290890E+08, -8.441140764688425E+06, 2.869378211942028E+07,
2461505.500000000, A.D. 2027-Apr-10 00:00:00.0000, 1.920304390098192E+08, 8.961255275748949E+06, 3.386413200946099E+07,
2461512.500000000, A.D. 2027-Apr-17 00:00:00.0000, 1.861035563662502E+08, 2.630418173474558E+07, 3.881334187514987E+07,
2461519.500000000, A.D. 2027-Apr-24 00:00:00.0000, 1.789003261190565E+08, 4.346571726181586E+07, 4.349602053471477E+07,
2461526.500000000, A.D. 2027-May-01 00:00:00.0000, 1.704161677102129E+08, 6.031514447085498E+07, 4.786696183966386E+07,
2461533.500000000, A.D. 2027-May-08 00:00:00.0000, 1.606690517210924E+08, 7.671682525182799E+07, 5.188290413927036E+07,
2461540.500000000, A.D. 2027-May-15 00:00:00.0000, 1.497010956347471E+08, 9.253502234295154E+07, 5.550442612862621E+07,
2461547.500000000, A.D. 2027-May-22 00:00:00.0000, 1.375786382631930E+08, 1.076392881564254E+08, 5.869779241498183E+07,
2461554.500000000, A.D. 2027-May-29 00:00:00.0000, 1.243906128069377E+08, 1.219098893712464E+08, 6.143653866435540E+07,
2461561.500000000, A.D. 2027-Jun-05 00:00:00.0000, 1.102452852400281E+08, 1.352426768456289E+08, 6.370260510962813E+07,
2461568.500000000, A.D. 2027-Jun-12 00:00:00.0000, 9.526567935573104E+07, 1.475528641676177E+08, 6.548688778685691E+07,
2461575.500000000, A.D. 2027-Jun-19 00:00:00.0000, 7.958420836609370E+07, 1.587773456659424E+08, 6.678916565543925E+07,
2461582.500000000, A.D. 2027-Jun-26 00:00:00.0000, 6.333711888377050E+07, 1.688754217307708E+08, 6.761745585350952E+07,
2461589.500000000, A.D. 2027-Jul-03 00:00:00.0000, 4.665931365889034E+07, 1.778280390197573E+08, 6.798692451527098E+07,
2461596.500000000, A.D. 2027-Jul-10 00:00:00.0000, 2.967998168219323E+07, 1.856358377018801E+08, 6.791852126470307E+07,
2461603.500000000, A.D. 2027-Jul-17 00:00:00.0000, 1.251927828488161E+07, 1.923163956531247E+08, 6.743750892153579E+07,
2461610.500000000, A.D. 2027-Jul-24 00:00:00.0000, -4.713884620707829E+06, 1.979010697974983E+08, 6.657203418758880E+07,
2461617.500000000, A.D. 2027-Jul-31 00:00:00.0000, -2.192302058770313E+07, 2.024317799980947E+08, 6.535184349668366E+07,
2461624.500000000, A.D. 2027-Aug-07 00:00:00.0000, -3.902439398253769E+07, 2.059579923218663E+08, 6.380720381392516E+07,
2461631.500000000, A.D. 2027-Aug-14 00:00:00.0000, -5.594669768656014E+07, 2.085340610462847E+08, 6.196804975328395E+07,
2461638.500000000, A.D. 2027-Aug-21 00:00:00.0000, -7.263028614708719E+07, 2.102170016123189E+08, 5.986334968504682E+07,
2461645.500000000, A.D. 2027-Aug-28 00:00:00.0000, -8.902613732653151E+07, 2.110647080897538E+08, 5.752066639662780E+07,
2461652.500000000, A.D. 2027-Sep-04 00:00:00.0000, -1.050946847362314E+08, 2.111345887829563E+08, 5.496588030867037E+07,
2461659.500000000, A.D. 2027-Sep-11 00:00:00.0000, -1.208046230677685E+08, 2.104825677454821E+08, 5.222304135982579E+07,
2461666.500000000, A.D. 2027-Sep-18 00:00:00.0000, -1.361317559665695E+08, 2.091623911430016E+08, 4.931431791454349E+07,
2461673.500000000, A.D. 2027-Sep-25 00:00:00.0000, -1.510579275427117E+08, 2.072251782115085E+08, 4.626001548550606E+07,
2461680.500000000, A.D. 2027-Oct-02 00:00:00.0000, -1.655700593522770E+08, 2.047191620467804E+08, 4.307864312916978E+07,
2461687.500000000, A.D. 2027-Oct-09 00:00:00.0000, -1.796593006689189E+08, 2.016895731825376E+08, 3.978701025311723E+07,
2461694.500000000, A.D. 2027-Oct-16 00:00:00.0000, -1.933202907115104E+08, 1.981786271979193E+08, 3.640034086267908E+07,
2461701.500000000, A.D. 2027-Oct-23 00:00:00.0000, -2.065505258177103E+08, 1.942255855267826E+08, 3.293239582070179E+07,
2461708.500000000, A.D. 2027-Oct-30 00:00:00.0000, -2.193498215314108E+08, 1.898668661843988E+08, 2.939559655733920E+07,
2461715.500000000, A.D. 2027-Nov-06 00:00:00.0000, -2.317198599338815E+08, 1.851361874460926E+08, 2.580114601313052E+07,
2461722.500000000, A.D. 2027-Nov-13 00:00:00.0000, -2.436638132901502E+08, 1.800647290063474E+08, 2.215914402138761E+07,
2461729.500000000, A.D. 2027-Nov-20 00:00:00.0000, -2.551860307431660E+08, 1.746812987302015E+08, 1.847869504305691E+07,
2461736.500000000, A.D. 2027-Nov-27 00:00:00.0000, -2.662917769765539E+08, 1.690125010872923E+08, 1.476800752941851E+07,
2461743.500000000, A.D. 2027-Dec-04 00:00:00.0000, -2.769870164845558E+08, 1.630829034738784E+08, 1.103448492130971E+07,
2461750.500000000, A.D. 2027-Dec-11 00:00:00.0000, -2.872782366841769E+08, 1.569151963709942E+08, 7.284808378254779E+06,
2461757.500000000, A.D. 2027-Dec-18 00:00:00.0000, -2.971723032922440E+08, 1.505303450829715E+08, 3.525011541993015E+06,
2461764.500000000, A.D. 2027-Dec-25 00:00:00.0000, -3.066763424502409E+08, 1.439477319831854E+08, -2.394521830140948E+05,
2461771.500000000, A.D. 2028-Jan-01 00:00:00.0000, -3.157976450243174E+08, 1.371852888131739E+08, -4.003649266524762E+06,
$$EOE